VIASAT-3                
1 56370U 23060A   23161.89277191 -.00000188  00000+0  00000+0 0  9995
2 56370   0.0444 119.5109 0000678 335.3006  36.7097  1.00270838   407
ARCTURUS                
1 56371U 23060B   23162.54041707  .00000125  00000+0  00000+0 0  9991
2 56371   0.0705 290.7698 0000687 126.1436 234.3356  1.00263776   414
GS-1                    
1 56372U 23060C   23160.80000000  .00000085  00000+0  00000+0 0  9995
2 56372   0.1090  75.1520 0157725 214.9090 262.8650  1.01314657   363
STARLINK-6156           
1 56374U 23061A   23162.58334491 -.00894880  00000+0 -33681-1 0  9998
2 56374  42.9970 244.7236 0001341 283.5193 210.7369 15.29239313  6301
STARLINK-6158           
1 56375U 23061B   23162.58334491 -.00883817  00000+0 -32647-1 0  9998
2 56375  42.9970 244.6691 0001235 281.6456 234.9566 15.29808149  6271
STARLINK-6188           
1 56376U 23061C   23162.58334491 -.00884482  00000+0 -33039-1 0  9994
2 56376  42.9971 244.7028 0001220 277.9585 225.0425 15.29450727  1302
STARLINK-6189           
1 56377U 23061D   23162.58334491 -.00886160  00000+0 -32468-1 0  9995
2 56377  42.9970 244.6447 0001206 274.6258 252.1855 15.30077057  6273
STARLINK-6191           
1 56378U 23061E   23162.58334491 -.00882995  00000+0 -31325-1 0  9999
2 56378  42.9968 244.5529 0001221 282.3412 282.5220 15.31098235  1300
STARLINK-6157           
1 56379U 23061F   23162.58334491 -.00880629  00000+0 -32063-1 0  9992
2 56379  42.9970 244.6270 0001158 273.9876 260.1996 15.30261666  6279
STARLINK-6161           
1 56380U 23061G   23162.58334491 -.00876929  00000+0 -31374-1 0  9996
2 56380  42.9969 244.5769 0001162 282.7140 271.8562 15.30810049  1300
STARLINK-6159           
1 56381U 23061H   23162.58334491 -.00882696  00000+0 -31833-1 0  9995
2 56381  42.9969 244.5985 0001177 274.2705 271.3733 15.30573385  1304
STARLINK-6160           
1 56382U 23061J   23162.58334491 -.00882789  00000+0 -30751-1 0  9997
2 56382  42.9967 244.5022 0001250 281.7903 303.5562 15.31678175  1302
STARLINK-6166           
1 56383U 23061K   23162.58334491 -.00883253  00000+0 -31049-1 0  9996
2 56383  42.9970 244.5266 0001251 282.5825 292.6440 15.31389869  1302
STARLINK-6153           
1 56384U 23061L   23162.91667824 -.00967492  00000+0 -33344-1 0  9991
2 56384  42.9966 242.5402 0001417 273.5748  18.8831 15.31829280  6332
STARLINK-6173           
1 56385U 23061M   23162.91667824 -.00967169  00000+0 -33910-1 0  9992
2 56385  42.9969 242.5872 0001381 267.2603   5.9458 15.31283042  6339
STARLINK-5836           
1 56386U 23061N   23162.91667824 -.00966404  00000+0 -32697-1 0  9995
2 56386  42.9965 242.4920 0001435 268.1046  44.1731 15.32411257  6331
STARLINK-6178           
1 56387U 23061P   23162.58334491 -.00879199  00000+0 -30163-1 0  9990
2 56387  42.9966 244.4618 0001225 276.8443 325.0997 15.32150071  1304
STARLINK-6176           
1 56388U 23061Q   23162.91667824 -.00963950  00000+0 -31964-1 0  9996
2 56388  42.9965 242.4399 0001423 271.3020  62.4227 15.33040105  6332
STARLINK-6145           
1 56389U 23061R   23162.58334491 -.00879462  00000+0 -29658-1 0  9992
2 56389  42.9963 244.4174 0001256 270.3537 349.8465 15.32693630  1304
STARLINK-6300           
1 56390U 23061S   23162.58334491 -.00877983  00000+0 -94211-2 0  9998
2 56390  42.9960 240.7111 0001379 280.7653  49.8498 15.65238293  1302
STARLINK-6298           
1 56391U 23061T   23162.91667824 -.00965274  00000+0 -32404-1 0  9991
2 56391  42.9964 242.4712 0001461 274.5589  46.0078 15.32655564  6333
STARLINK-6301           
1 56392U 23061U   23162.58334491 -.00877383  00000+0 -94165-2 0  9992
2 56392  42.9960 240.7129 0001361 271.9969  57.9556 15.65232018  6327
STARLINK-6303           
1 56393U 23061V   23162.91667824 -.00964634  00000+0 -32187-1 0  9990
2 56393  42.9965 242.4561 0001398 269.4580  57.6461 15.32845345  6333
STARLINK-6305           
1 56394U 23061W   23162.58334491 -.00876935  00000+0 -94023-2 0  9999
2 56394  42.9961 240.7063 0001346 278.3320  54.2712 15.65255746  1302
STARLINK-6273           
1 56395U 23061X   23162.58334491 -.00877288  00000+0 -94086-2 0  9991
2 56395  42.9960 240.7078 0001342 277.7546  54.1856 15.65250064  1303
STARLINK-6302           
1 56396U 23061Y   23162.58334491 -.00877999  00000+0 -94100-2 0  9998
2 56396  42.9961 240.7030 0001370 279.0203  54.9081 15.65268092  1307
STARLINK-6271           
1 56397U 23061Z   23162.58334491 -.00876870  00000+0 -94061-2 0  9992
2 56397  42.9959 240.7094 0001330 275.5057  55.7719 15.65243828  1306
STARLINK-6288           
1 56398U 23061AA  23162.58334491 -.00877619  00000+0 -94034-2 0  9995
2 56398  42.9960 240.7014 0001356 279.7846  54.8060 15.65273895  6324
STARLINK-6277           
1 56399U 23061AB  23162.58334491 -.00877445  00000+0 -94059-2 0  9990
2 56399  42.9960 240.7047 0001360 281.2643  52.0014 15.65261889  1301
STARLINK-6267           
1 56400U 23061AC  23162.58334491 -.00863568  00000+0 -92373-2 0  9991
2 56400  42.9960 240.6981 0001505 276.4866  59.4315 15.65277709  1307
STARLINK-6256           
1 56401U 23061AD  23162.64497149  .00000628  00000+0  82349-5 0  9992
2 56401  42.9970 240.2380 0001413 276.4570  83.6136 15.71354473  6337
STARLINK-6269           
1 56402U 23061AE  23162.58334491 -.00863395  00000+0 -92360-2 0  9997
2 56402  42.9961 240.6938 0001476 281.6286  56.0478 15.65276025  1306
STARLINK-6284           
1 56403U 23061AF  23162.58334491 -.00877915  00000+0 -94045-2 0  9993
2 56403  42.9962 240.6995 0001354 276.2260  59.0269 15.65280153  1306
STARLINK-6287           
1 56404U 23061AG  23162.58334491 -.00866377  00000+0 -92658-2 0  9992
2 56404  42.9962 240.6906 0001422 277.3489  61.6512 15.65289849  1301
STARLINK-6285           
1 56405U 23061AH  23162.58334491 -.00863489  00000+0 -92339-2 0  9990
2 56405  42.9961 240.6965 0001454 281.1998  55.3790 15.65284779  1304
STARLINK-6283           
1 56406U 23061AJ  23162.58334491 -.00865069  00000+0 -92439-2 0  9998
2 56406  42.9959 240.6853 0001380 275.4438  65.5412 15.65307962  1305
STARLINK-6282           
1 56407U 23061AK  23162.58334491 -.00864173  00000+0 -92426-2 0  9990
2 56407  42.9961 240.6919 0001458 280.0033  58.3346 15.65282804  1304
STARLINK-6289           
1 56408U 23061AL  23162.58334491 -.00862569  00000+0 -92133-2 0  9993
2 56408  42.9960 240.6836 0001473 281.3564  60.2929 15.65311181  1302
STARLINK-6241           
1 56409U 23061AM  23162.58334491 -.00864333  00000+0 -92401-2 0  9993
2 56409  42.9961 240.6886 0001437 273.8746  65.7878 15.65294699  1304
STARLINK-6281           
1 56410U 23061AN  23162.58334491 -.00864740  00000+0 -92337-2 0  9995
2 56410  42.9963 240.6807 0001459 273.7719  69.2006 15.65324438  1301
STARLINK-6279           
1 56411U 23061AP  23162.58334491 -.00863101  00000+0 -92238-2 0  9996
2 56411  42.9961 240.6867 0001442 276.2236  64.1013 15.65299862  1304
STARLINK-6278           
1 56412U 23061AQ  23162.58334491 -.00864695  00000+0 -92287-2 0  9990
2 56412  42.9959 240.6772 0001471 278.4751  65.8208 15.65336374  1309
STARLINK-6258           
1 56413U 23061AR  23162.58334491 -.00863416  00000+0 -92208-2 0  9994
2 56413  42.9960 240.6819 0001470 277.9243  64.3869 15.65317560  6323
STARLINK-5136           
1 56414U 23061AS  23162.58334491 -.00863736  00000+0 -92133-2 0  9997
2 56414  42.9960 240.6737 0001482 281.5243  64.0948 15.65347671  1301
STARLINK-6268           
1 56415U 23061AT  23162.58334491 -.00863935  00000+0 -92222-2 0  9998
2 56415  42.9960 240.6787 0001464 280.9316  62.7026 15.65330113  6323
STARLINK-6260           
1 56416U 23061AU  23162.57983606  .00001070  00000+0  11604-4 0  9995
2 56416  42.9982 240.6090 0001227 268.5497  91.5230 15.71349694  6030
STARLINK-6261           
1 56417U 23061AV  23162.58334491 -.00866147  00000+0 -92429-2 0  9997
2 56417  42.9959 240.6754 0001399 274.5470  70.4089 15.65344195  1307
STARLINK-5356           
1 56418U 23061AW  23162.57961898  .00001402  00000+0  14137-4 0  9999
2 56418  42.9968 240.6062 0001830 278.8710  81.1951 15.71355658  6039
STARLINK-5350           
1 56419U 23061AX  23162.58334491 -.00866749  00000+0 -92453-2 0  9994
2 56419  42.9958 240.6719 0001400 262.7643  83.5143 15.65356529  1303
STARLINK-6272           
1 56420U 23061AY  23162.64307827 -.00000339  00000+0  86255-6 0  9997
2 56420  42.9974 240.2219 0001590 277.8348  82.2340 15.71351332  6330
STARLINK-6270           
1 56421U 23061AZ  23162.57972742  .00001126  00000+0  12033-4 0  9999
2 56421  42.9969 240.6068 0001476 270.0960  89.9739 15.71353927  6034
STARLINK-6236           
1 56422U 23061BA  23162.51565365  .00045662  00000+0  34693-3 0  9991
2 56422  42.9968 240.9871 0001925 261.5126  98.5523 15.71546756  6027
STARLINK-6239           
1 56423U 23061BB  23162.51584729  .00008383  00000+0  67319-4 0  9998
2 56423  42.9965 240.9871 0001721 278.5093  81.5580 15.71351298  6020
STARLINK-6242           
1 56424U 23061BC  23162.51553241  .00001517  00000+0  15013-4 0  9990
2 56424  42.9969 240.9848 0001450 271.1085  88.9616 15.71357300  6029
STARLINK-6224           
1 56425U 23061BD  23162.64276161  .00000136  00000+0  44803-5 0  9994
2 56425  42.9968 240.2195 0001467 280.3301  79.7401 15.71352699  6338
STARLINK-5352           
1 56426U 23061BE  23162.64244649  .00001235  00000+0  12863-4 0  9992
2 56426  42.9973 240.2160 0001586 269.2599  90.8087 15.71355977  6330
STARLINK-5724           
1 56427U 23061BF  23162.51542583  .00004106  00000+0  34740-4 0  9995
2 56427  42.9965 240.9835 0001763 278.8121  81.2548 15.71356692  6029
STARLINK-6238           
1 56428U 23061BG  23162.64233955  .00002591  00000+0  23191-4 0  9994
2 56428  42.9964 240.2159 0001477 259.6210 100.4491 15.71359043  6337
STARLINK-6264           
1 56429U 23061BH  23162.51511491  .00000220  00000+0  51233-5 0  9991
2 56429  42.9984 240.9820 0001294 275.0036  85.0684 15.71351490  6023
